{
  "type": "FeatureCollection",
  "name": "wuhan_rivers_flowthrough_formal_bake",
  "features": [
    {
      "type": "Feature",
      "id": "HR_40661625",
      "properties": {
        "id": "HR_40661625",
        "flowDirection": "topology_ordered_flowthrough",
        "fromSubbasin": "PF_465610",
        "toSubbasin": "PF_465500",
        "downstreamSubbasin": "PF_465309",
        "flowThrough": [
          "PF_465610",
          "PF_465500"
        ],
        "sourceHydroRiverId": 40661625,
        "method": "formal_centroid_line_from_hydrorivers_flowthrough_draft"
      },
      "geometry": {
        "type": "LineString",
        "coordinates": [
          [
            113.91166666703316,
            30.56583333374141
          ],
          [
            114.36083333319186,
            30.567500000075
          ]
        ]
      }
    },
    {
      "type": "Feature",
      "id": "HR_40660343",
      "properties": {
        "id": "HR_40660343",
        "flowDirection": "topology_ordered_flowthrough",
        "fromSubbasin": "PF_465500",
        "toSubbasin": "PF_465500",
        "downstreamSubbasin": "PF_465309",
        "flowThrough": [
          "PF_465500"
        ],
        "sourceHydroRiverId": 40660343,
        "method": "formal_centroid_line_from_hydrorivers_flowthrough_draft"
      },
      "geometry": {
        "type": "LineString",
        "coordinates": [
          [
            114.36083333319186,
            30.567500000075
          ],
          [
            114.36183333319187,
            30.568500000075
          ]
        ]
      }
    },
    {
      "type": "Feature",
      "id": "HR_40696338",
      "properties": {
        "id": "HR_40696338",
        "flowDirection": "topology_ordered_flowthrough",
        "fromSubbasin": "PF_465100",
        "toSubbasin": "PF_465100",
        "downstreamSubbasin": "PF_463099",
        "flowThrough": [
          "PF_465100"
        ],
        "sourceHydroRiverId": 40696338,
        "method": "formal_centroid_line_from_hydrorivers_flowthrough_draft"
      },
      "geometry": {
        "type": "LineString",
        "coordinates": [
          [
            115.77374015147672,
            29.805000000249862
          ],
          [
            115.77474015147672,
            29.806000000249863
          ]
        ]
      }
    },
    {
      "type": "Feature",
      "id": "HR_40695772",
      "properties": {
        "id": "HR_40695772",
        "flowDirection": "topology_ordered_flowthrough",
        "fromSubbasin": "PF_465100",
        "toSubbasin": "PF_465100",
        "downstreamSubbasin": "PF_463099",
        "flowThrough": [
          "PF_465100"
        ],
        "sourceHydroRiverId": 40695772,
        "method": "formal_centroid_line_from_hydrorivers_flowthrough_draft"
      },
      "geometry": {
        "type": "LineString",
        "coordinates": [
          [
            115.77374015147672,
            29.805000000249862
          ],
          [
            115.77474015147672,
            29.806000000249863
          ]
        ]
      }
    },
    {
      "type": "Feature",
      "id": "HR_40696335",
      "properties": {
        "id": "HR_40696335",
        "flowDirection": "topology_ordered_flowthrough",
        "fromSubbasin": "PF_465100",
        "toSubbasin": "PF_465100",
        "downstreamSubbasin": "PF_463099",
        "flowThrough": [
          "PF_465100"
        ],
        "sourceHydroRiverId": 40696335,
        "method": "formal_centroid_line_from_hydrorivers_flowthrough_draft"
      },
      "geometry": {
        "type": "LineString",
        "coordinates": [
          [
            115.77374015147672,
            29.805000000249862
          ],
          [
            115.77474015147672,
            29.806000000249863
          ]
        ]
      }
    },
    {
      "type": "Feature",
      "id": "HR_40694261",
      "properties": {
        "id": "HR_40694261",
        "flowDirection": "topology_ordered_flowthrough",
        "fromSubbasin": "PF_465100",
        "toSubbasin": "PF_465100",
        "downstreamSubbasin": "PF_463099",
        "flowThrough": [
          "PF_465100"
        ],
        "sourceHydroRiverId": 40694261,
        "method": "formal_centroid_line_from_hydrorivers_flowthrough_draft"
      },
      "geometry": {
        "type": "LineString",
        "coordinates": [
          [
            115.77374015147672,
            29.805000000249862
          ],
          [
            115.77474015147672,
            29.806000000249863
          ]
        ]
      }
    },
    {
      "type": "Feature",
      "id": "HR_40695559",
      "properties": {
        "id": "HR_40695559",
        "flowDirection": "topology_ordered_flowthrough",
        "fromSubbasin": "PF_465100",
        "toSubbasin": "PF_465100",
        "downstreamSubbasin": "PF_463099",
        "flowThrough": [
          "PF_465100"
        ],
        "sourceHydroRiverId": 40695559,
        "method": "formal_centroid_line_from_hydrorivers_flowthrough_draft"
      },
      "geometry": {
        "type": "LineString",
        "coordinates": [
          [
            115.77374015147672,
            29.805000000249862
          ],
          [
            115.77474015147672,
            29.806000000249863
          ]
        ]
      }
    },
    {
      "type": "Feature",
      "id": "HR_40658738",
      "properties": {
        "id": "HR_40658738",
        "flowDirection": "topology_ordered_flowthrough",
        "fromSubbasin": "PF_465401",
        "toSubbasin": "PF_465500",
        "downstreamSubbasin": "PF_465309",
        "flowThrough": [
          "PF_465401",
          "PF_465500"
        ],
        "sourceHydroRiverId": 40658738,
        "method": "formal_centroid_line_from_hydrorivers_flowthrough_draft"
      },
      "geometry": {
        "type": "LineString",
        "coordinates": [
          [
            114.07583333349163,
            30.8862500003373
          ],
          [
            114.36083333319186,
            30.567500000075
          ]
        ]
      }
    },
    {
      "type": "Feature",
      "id": "HR_40693318",
      "properties": {
        "id": "HR_40693318",
        "flowDirection": "topology_ordered_flowthrough",
        "fromSubbasin": "PF_465100",
        "toSubbasin": "PF_465100",
        "downstreamSubbasin": "PF_463099",
        "flowThrough": [
          "PF_465100"
        ],
        "sourceHydroRiverId": 40693318,
        "method": "formal_centroid_line_from_hydrorivers_flowthrough_draft"
      },
      "geometry": {
        "type": "LineString",
        "coordinates": [
          [
            115.77374015147672,
            29.805000000249862
          ],
          [
            115.77474015147672,
            29.806000000249863
          ]
        ]
      }
    },
    {
      "type": "Feature",
      "id": "HR_40692612",
      "properties": {
        "id": "HR_40692612",
        "flowDirection": "topology_ordered_flowthrough",
        "fromSubbasin": "PF_465100",
        "toSubbasin": "PF_465100",
        "downstreamSubbasin": "PF_463099",
        "flowThrough": [
          "PF_465100"
        ],
        "sourceHydroRiverId": 40692612,
        "method": "formal_centroid_line_from_hydrorivers_flowthrough_draft"
      },
      "geometry": {
        "type": "LineString",
        "coordinates": [
          [
            115.77374015147672,
            29.805000000249862
          ],
          [
            115.77474015147672,
            29.806000000249863
          ]
        ]
      }
    },
    {
      "type": "Feature",
      "id": "HR_40691291",
      "properties": {
        "id": "HR_40691291",
        "flowDirection": "topology_ordered_flowthrough",
        "fromSubbasin": "PF_465100",
        "toSubbasin": "PF_465100",
        "downstreamSubbasin": "PF_463099",
        "flowThrough": [
          "PF_465100"
        ],
        "sourceHydroRiverId": 40691291,
        "method": "formal_centroid_line_from_hydrorivers_flowthrough_draft"
      },
      "geometry": {
        "type": "LineString",
        "coordinates": [
          [
            115.77374015147672,
            29.805000000249862
          ],
          [
            115.77474015147672,
            29.806000000249863
          ]
        ]
      }
    },
    {
      "type": "Feature",
      "id": "HR_40691292",
      "properties": {
        "id": "HR_40691292",
        "flowDirection": "topology_ordered_flowthrough",
        "fromSubbasin": "PF_465100",
        "toSubbasin": "PF_465100",
        "downstreamSubbasin": "PF_463099",
        "flowThrough": [
          "PF_465100"
        ],
        "sourceHydroRiverId": 40691292,
        "method": "formal_centroid_line_from_hydrorivers_flowthrough_draft"
      },
      "geometry": {
        "type": "LineString",
        "coordinates": [
          [
            115.77374015147672,
            29.805000000249862
          ],
          [
            115.77474015147672,
            29.806000000249863
          ]
        ]
      }
    },
    {
      "type": "Feature",
      "id": "HR_40691063",
      "properties": {
        "id": "HR_40691063",
        "flowDirection": "topology_ordered_flowthrough",
        "fromSubbasin": "PF_465100",
        "toSubbasin": "PF_465100",
        "downstreamSubbasin": "PF_463099",
        "flowThrough": [
          "PF_465100"
        ],
        "sourceHydroRiverId": 40691063,
        "method": "formal_centroid_line_from_hydrorivers_flowthrough_draft"
      },
      "geometry": {
        "type": "LineString",
        "coordinates": [
          [
            115.77374015147672,
            29.805000000249862
          ],
          [
            115.77474015147672,
            29.806000000249863
          ]
        ]
      }
    },
    {
      "type": "Feature",
      "id": "HR_40691290",
      "properties": {
        "id": "HR_40691290",
        "flowDirection": "topology_ordered_flowthrough",
        "fromSubbasin": "PF_465100",
        "toSubbasin": "PF_465100",
        "downstreamSubbasin": "PF_463099",
        "flowThrough": [
          "PF_465100"
        ],
        "sourceHydroRiverId": 40691290,
        "method": "formal_centroid_line_from_hydrorivers_flowthrough_draft"
      },
      "geometry": {
        "type": "LineString",
        "coordinates": [
          [
            115.77374015147672,
            29.805000000249862
          ],
          [
            115.77474015147672,
            29.806000000249863
          ]
        ]
      }
    },
    {
      "type": "Feature",
      "id": "HR_40691288",
      "properties": {
        "id": "HR_40691288",
        "flowDirection": "topology_ordered_flowthrough",
        "fromSubbasin": "PF_465100",
        "toSubbasin": "PF_465100",
        "downstreamSubbasin": "PF_463099",
        "flowThrough": [
          "PF_465100"
        ],
        "sourceHydroRiverId": 40691288,
        "method": "formal_centroid_line_from_hydrorivers_flowthrough_draft"
      },
      "geometry": {
        "type": "LineString",
        "coordinates": [
          [
            115.77374015147672,
            29.805000000249862
          ],
          [
            115.77474015147672,
            29.806000000249863
          ]
        ]
      }
    },
    {
      "type": "Feature",
      "id": "HR_40691287",
      "properties": {
        "id": "HR_40691287",
        "flowDirection": "topology_ordered_flowthrough",
        "fromSubbasin": "PF_463096",
        "toSubbasin": "PF_465100",
        "downstreamSubbasin": "PF_463099",
        "flowThrough": [
          "PF_463096",
          "PF_465100"
        ],
        "sourceHydroRiverId": 40691287,
        "method": "formal_centroid_line_from_hydrorivers_flowthrough_draft"
      },
      "geometry": {
        "type": "LineString",
        "coordinates": [
          [
            115.74395833311064,
            30.020833333391664
          ],
          [
            115.77374015147672,
            29.805000000249862
          ]
        ]
      }
    },
    {
      "type": "Feature",
      "id": "HR_40690877",
      "properties": {
        "id": "HR_40690877",
        "flowDirection": "topology_ordered_flowthrough",
        "fromSubbasin": "PF_465100",
        "toSubbasin": "PF_465100",
        "downstreamSubbasin": "PF_463099",
        "flowThrough": [
          "PF_465100"
        ],
        "sourceHydroRiverId": 40690877,
        "method": "formal_centroid_line_from_hydrorivers_flowthrough_draft"
      },
      "geometry": {
        "type": "LineString",
        "coordinates": [
          [
            115.77374015147672,
            29.805000000249862
          ],
          [
            115.77474015147672,
            29.806000000249863
          ]
        ]
      }
    },
    {
      "type": "Feature",
      "id": "HR_40690876",
      "properties": {
        "id": "HR_40690876",
        "flowDirection": "topology_ordered_flowthrough",
        "fromSubbasin": "PF_465301",
        "toSubbasin": "PF_465100",
        "downstreamSubbasin": "PF_463099",
        "flowThrough": [
          "PF_465301",
          "PF_465100"
        ],
        "sourceHydroRiverId": 40690876,
        "method": "formal_centroid_line_from_hydrorivers_flowthrough_draft"
      },
      "geometry": {
        "type": "LineString",
        "coordinates": [
          [
            115.47916666650849,
            30.512916666970654
          ],
          [
            115.77374015147672,
            29.805000000249862
          ]
        ]
      }
    },
    {
      "type": "Feature",
      "id": "HR_40695561",
      "properties": {
        "id": "HR_40695561",
        "flowDirection": "topology_ordered_flowthrough",
        "fromSubbasin": "PF_465100",
        "toSubbasin": "PF_465100",
        "downstreamSubbasin": "PF_463099",
        "flowThrough": [
          "PF_465100"
        ],
        "sourceHydroRiverId": 40695561,
        "method": "formal_centroid_line_from_hydrorivers_flowthrough_draft"
      },
      "geometry": {
        "type": "LineString",
        "coordinates": [
          [
            115.77374015147672,
            29.805000000249862
          ],
          [
            115.77474015147672,
            29.806000000249863
          ]
        ]
      }
    },
    {
      "type": "Feature",
      "id": "HR_40695348",
      "properties": {
        "id": "HR_40695348",
        "flowDirection": "topology_ordered_flowthrough",
        "fromSubbasin": "PF_465100",
        "toSubbasin": "PF_465100",
        "downstreamSubbasin": "PF_463099",
        "flowThrough": [
          "PF_465100"
        ],
        "sourceHydroRiverId": 40695348,
        "method": "formal_centroid_line_from_hydrorivers_flowthrough_draft"
      },
      "geometry": {
        "type": "LineString",
        "coordinates": [
          [
            115.77374015147672,
            29.805000000249862
          ],
          [
            115.77474015147672,
            29.806000000249863
          ]
        ]
      }
    },
    {
      "type": "Feature",
      "id": "HR_40695146",
      "properties": {
        "id": "HR_40695146",
        "flowDirection": "topology_ordered_flowthrough",
        "fromSubbasin": "PF_465100",
        "toSubbasin": "PF_465100",
        "downstreamSubbasin": "PF_463099",
        "flowThrough": [
          "PF_465100"
        ],
        "sourceHydroRiverId": 40695146,
        "method": "formal_centroid_line_from_hydrorivers_flowthrough_draft"
      },
      "geometry": {
        "type": "LineString",
        "coordinates": [
          [
            115.77374015147672,
            29.805000000249862
          ],
          [
            115.77474015147672,
            29.806000000249863
          ]
        ]
      }
    },
    {
      "type": "Feature",
      "id": "HR_40658094",
      "properties": {
        "id": "HR_40658094",
        "flowDirection": "topology_ordered_flowthrough",
        "fromSubbasin": "PF_465308",
        "toSubbasin": "PF_465401",
        "downstreamSubbasin": "PF_465309",
        "flowThrough": [
          "PF_465308",
          "PF_465401"
        ],
        "sourceHydroRiverId": 40658094,
        "method": "formal_centroid_line_from_hydrorivers_flowthrough_draft"
      },
      "geometry": {
        "type": "LineString",
        "coordinates": [
          [
            114.37249999977519,
            31.081666666283667
          ],
          [
            114.07583333349163,
            30.8862500003373
          ]
        ]
      }
    },
    {
      "type": "Feature",
      "id": "HR_40689573",
      "properties": {
        "id": "HR_40689573",
        "flowDirection": "topology_ordered_flowthrough",
        "fromSubbasin": "PF_465301",
        "toSubbasin": "PF_465301",
        "downstreamSubbasin": "PF_465100",
        "flowThrough": [
          "PF_465301"
        ],
        "sourceHydroRiverId": 40689573,
        "method": "formal_centroid_line_from_hydrorivers_flowthrough_draft"
      },
      "geometry": {
        "type": "LineString",
        "coordinates": [
          [
            115.47916666650849,
            30.512916666970654
          ],
          [
            115.4801666665085,
            30.513916666970655
          ]
        ]
      }
    },
    {
      "type": "Feature",
      "id": "HR_40687789",
      "properties": {
        "id": "HR_40687789",
        "flowDirection": "topology_ordered_flowthrough",
        "fromSubbasin": "PF_465301",
        "toSubbasin": "PF_465301",
        "downstreamSubbasin": "PF_465100",
        "flowThrough": [
          "PF_465301"
        ],
        "sourceHydroRiverId": 40687789,
        "method": "formal_centroid_line_from_hydrorivers_flowthrough_draft"
      },
      "geometry": {
        "type": "LineString",
        "coordinates": [
          [
            115.47916666650849,
            30.512916666970654
          ],
          [
            115.4801666665085,
            30.513916666970655
          ]
        ]
      }
    },
    {
      "type": "Feature",
      "id": "HR_40686719",
      "properties": {
        "id": "HR_40686719",
        "flowDirection": "topology_ordered_flowthrough",
        "fromSubbasin": "PF_465301",
        "toSubbasin": "PF_465301",
        "downstreamSubbasin": "PF_465100",
        "flowThrough": [
          "PF_465301"
        ],
        "sourceHydroRiverId": 40686719,
        "method": "formal_centroid_line_from_hydrorivers_flowthrough_draft"
      },
      "geometry": {
        "type": "LineString",
        "coordinates": [
          [
            115.47916666650849,
            30.512916666970654
          ],
          [
            115.4801666665085,
            30.513916666970655
          ]
        ]
      }
    },
    {
      "type": "Feature",
      "id": "HR_40683113",
      "properties": {
        "id": "HR_40683113",
        "flowDirection": "topology_ordered_flowthrough",
        "fromSubbasin": "PF_465301",
        "toSubbasin": "PF_465301",
        "downstreamSubbasin": "PF_465100",
        "flowThrough": [
          "PF_465301"
        ],
        "sourceHydroRiverId": 40683113,
        "method": "formal_centroid_line_from_hydrorivers_flowthrough_draft"
      },
      "geometry": {
        "type": "LineString",
        "coordinates": [
          [
            115.47916666650849,
            30.512916666970654
          ],
          [
            115.4801666665085,
            30.513916666970655
          ]
        ]
      }
    },
    {
      "type": "Feature",
      "id": "HR_40682895",
      "properties": {
        "id": "HR_40682895",
        "flowDirection": "topology_ordered_flowthrough",
        "fromSubbasin": "PF_465301",
        "toSubbasin": "PF_465301",
        "downstreamSubbasin": "PF_465100",
        "flowThrough": [
          "PF_465301"
        ],
        "sourceHydroRiverId": 40682895,
        "method": "formal_centroid_line_from_hydrorivers_flowthrough_draft"
      },
      "geometry": {
        "type": "LineString",
        "coordinates": [
          [
            115.47916666650849,
            30.512916666970654
          ],
          [
            115.4801666665085,
            30.513916666970655
          ]
        ]
      }
    },
    {
      "type": "Feature",
      "id": "HR_40682552",
      "properties": {
        "id": "HR_40682552",
        "flowDirection": "topology_ordered_flowthrough",
        "fromSubbasin": "PF_465301",
        "toSubbasin": "PF_465301",
        "downstreamSubbasin": "PF_465100",
        "flowThrough": [
          "PF_465301"
        ],
        "sourceHydroRiverId": 40682552,
        "method": "formal_centroid_line_from_hydrorivers_flowthrough_draft"
      },
      "geometry": {
        "type": "LineString",
        "coordinates": [
          [
            115.47916666650849,
            30.512916666970654
          ],
          [
            115.4801666665085,
            30.513916666970655
          ]
        ]
      }
    },
    {
      "type": "Feature",
      "id": "HR_40682355",
      "properties": {
        "id": "HR_40682355",
        "flowDirection": "topology_ordered_flowthrough",
        "fromSubbasin": "PF_465301",
        "toSubbasin": "PF_465301",
        "downstreamSubbasin": "PF_465100",
        "flowThrough": [
          "PF_465301"
        ],
        "sourceHydroRiverId": 40682355,
        "method": "formal_centroid_line_from_hydrorivers_flowthrough_draft"
      },
      "geometry": {
        "type": "LineString",
        "coordinates": [
          [
            115.47916666650849,
            30.512916666970654
          ],
          [
            115.4801666665085,
            30.513916666970655
          ]
        ]
      }
    },
    {
      "type": "Feature",
      "id": "HR_40679692",
      "properties": {
        "id": "HR_40679692",
        "flowDirection": "topology_ordered_flowthrough",
        "fromSubbasin": "PF_465301",
        "toSubbasin": "PF_465301",
        "downstreamSubbasin": "PF_465100",
        "flowThrough": [
          "PF_465301"
        ],
        "sourceHydroRiverId": 40679692,
        "method": "formal_centroid_line_from_hydrorivers_flowthrough_draft"
      },
      "geometry": {
        "type": "LineString",
        "coordinates": [
          [
            115.47916666650849,
            30.512916666970654
          ],
          [
            115.4801666665085,
            30.513916666970655
          ]
        ]
      }
    },
    {
      "type": "Feature",
      "id": "HR_40678401",
      "properties": {
        "id": "HR_40678401",
        "flowDirection": "topology_ordered_flowthrough",
        "fromSubbasin": "PF_465301",
        "toSubbasin": "PF_465301",
        "downstreamSubbasin": "PF_465100",
        "flowThrough": [
          "PF_465301"
        ],
        "sourceHydroRiverId": 40678401,
        "method": "formal_centroid_line_from_hydrorivers_flowthrough_draft"
      },
      "geometry": {
        "type": "LineString",
        "coordinates": [
          [
            115.47916666650849,
            30.512916666970654
          ],
          [
            115.4801666665085,
            30.513916666970655
          ]
        ]
      }
    },
    {
      "type": "Feature",
      "id": "HR_40677736",
      "properties": {
        "id": "HR_40677736",
        "flowDirection": "topology_ordered_flowthrough",
        "fromSubbasin": "PF_465301",
        "toSubbasin": "PF_465301",
        "downstreamSubbasin": "PF_465100",
        "flowThrough": [
          "PF_465301"
        ],
        "sourceHydroRiverId": 40677736,
        "method": "formal_centroid_line_from_hydrorivers_flowthrough_draft"
      },
      "geometry": {
        "type": "LineString",
        "coordinates": [
          [
            115.47916666650849,
            30.512916666970654
          ],
          [
            115.4801666665085,
            30.513916666970655
          ]
        ]
      }
    },
    {
      "type": "Feature",
      "id": "HR_40675677",
      "properties": {
        "id": "HR_40675677",
        "flowDirection": "topology_ordered_flowthrough",
        "fromSubbasin": "PF_465301",
        "toSubbasin": "PF_465301",
        "downstreamSubbasin": "PF_465100",
        "flowThrough": [
          "PF_465301"
        ],
        "sourceHydroRiverId": 40675677,
        "method": "formal_centroid_line_from_hydrorivers_flowthrough_draft"
      },
      "geometry": {
        "type": "LineString",
        "coordinates": [
          [
            115.47916666650849,
            30.512916666970654
          ],
          [
            115.4801666665085,
            30.513916666970655
          ]
        ]
      }
    },
    {
      "type": "Feature",
      "id": "HR_40675512",
      "properties": {
        "id": "HR_40675512",
        "flowDirection": "topology_ordered_flowthrough",
        "fromSubbasin": "PF_465301",
        "toSubbasin": "PF_465301",
        "downstreamSubbasin": "PF_465100",
        "flowThrough": [
          "PF_465301"
        ],
        "sourceHydroRiverId": 40675512,
        "method": "formal_centroid_line_from_hydrorivers_flowthrough_draft"
      },
      "geometry": {
        "type": "LineString",
        "coordinates": [
          [
            115.47916666650849,
            30.512916666970654
          ],
          [
            115.4801666665085,
            30.513916666970655
          ]
        ]
      }
    },
    {
      "type": "Feature",
      "id": "HR_40675510",
      "properties": {
        "id": "HR_40675510",
        "flowDirection": "topology_ordered_flowthrough",
        "fromSubbasin": "PF_465301",
        "toSubbasin": "PF_465301",
        "downstreamSubbasin": "PF_465100",
        "flowThrough": [
          "PF_465301"
        ],
        "sourceHydroRiverId": 40675510,
        "method": "formal_centroid_line_from_hydrorivers_flowthrough_draft"
      },
      "geometry": {
        "type": "LineString",
        "coordinates": [
          [
            115.47916666650849,
            30.512916666970654
          ],
          [
            115.4801666665085,
            30.513916666970655
          ]
        ]
      }
    },
    {
      "type": "Feature",
      "id": "HR_40674662",
      "properties": {
        "id": "HR_40674662",
        "flowDirection": "topology_ordered_flowthrough",
        "fromSubbasin": "PF_465301",
        "toSubbasin": "PF_465301",
        "downstreamSubbasin": "PF_465100",
        "flowThrough": [
          "PF_465301"
        ],
        "sourceHydroRiverId": 40674662,
        "method": "formal_centroid_line_from_hydrorivers_flowthrough_draft"
      },
      "geometry": {
        "type": "LineString",
        "coordinates": [
          [
            115.47916666650849,
            30.512916666970654
          ],
          [
            115.4801666665085,
            30.513916666970655
          ]
        ]
      }
    },
    {
      "type": "Feature",
      "id": "HR_40673273",
      "properties": {
        "id": "HR_40673273",
        "flowDirection": "topology_ordered_flowthrough",
        "fromSubbasin": "PF_465301",
        "toSubbasin": "PF_465301",
        "downstreamSubbasin": "PF_465100",
        "flowThrough": [
          "PF_465301"
        ],
        "sourceHydroRiverId": 40673273,
        "method": "formal_centroid_line_from_hydrorivers_flowthrough_draft"
      },
      "geometry": {
        "type": "LineString",
        "coordinates": [
          [
            115.47916666650849,
            30.512916666970654
          ],
          [
            115.4801666665085,
            30.513916666970655
          ]
        ]
      }
    },
    {
      "type": "Feature",
      "id": "HR_40672796",
      "properties": {
        "id": "HR_40672796",
        "flowDirection": "topology_ordered_flowthrough",
        "fromSubbasin": "PF_465301",
        "toSubbasin": "PF_465301",
        "downstreamSubbasin": "PF_465100",
        "flowThrough": [
          "PF_465301"
        ],
        "sourceHydroRiverId": 40672796,
        "method": "formal_centroid_line_from_hydrorivers_flowthrough_draft"
      },
      "geometry": {
        "type": "LineString",
        "coordinates": [
          [
            115.47916666650849,
            30.512916666970654
          ],
          [
            115.4801666665085,
            30.513916666970655
          ]
        ]
      }
    },
    {
      "type": "Feature",
      "id": "HR_40668559",
      "properties": {
        "id": "HR_40668559",
        "flowDirection": "topology_ordered_flowthrough",
        "fromSubbasin": "PF_465302",
        "toSubbasin": "PF_465301",
        "downstreamSubbasin": "PF_465100",
        "flowThrough": [
          "PF_465302",
          "PF_465301"
        ],
        "sourceHydroRiverId": 40668559,
        "method": "formal_centroid_line_from_hydrorivers_flowthrough_draft"
      },
      "geometry": {
        "type": "LineString",
        "coordinates": [
          [
            115.35458333300443,
            30.879166666508496
          ],
          [
            115.47916666650849,
            30.512916666970654
          ]
        ]
      }
    },
    {
      "type": "Feature",
      "id": "HR_40667553",
      "properties": {
        "id": "HR_40667553",
        "flowDirection": "topology_ordered_flowthrough",
        "fromSubbasin": "PF_465305",
        "toSubbasin": "PF_465303",
        "downstreamSubbasin": "PF_465301",
        "flowThrough": [
          "PF_465305",
          "PF_465303"
        ],
        "sourceHydroRiverId": 40667553,
        "method": "formal_centroid_line_from_hydrorivers_flowthrough_draft"
      },
      "geometry": {
        "type": "LineString",
        "coordinates": [
          [
            114.83250000002505,
            30.59041666699565
          ],
          [
            114.89749999962538,
            30.387499999625334
          ]
        ]
      }
    },
    {
      "type": "Feature",
      "id": "HR_40667742",
      "properties": {
        "id": "HR_40667742",
        "flowDirection": "topology_ordered_flowthrough",
        "fromSubbasin": "PF_465303",
        "toSubbasin": "PF_465303",
        "downstreamSubbasin": "PF_465301",
        "flowThrough": [
          "PF_465303"
        ],
        "sourceHydroRiverId": 40667742,
        "method": "formal_centroid_line_from_hydrorivers_flowthrough_draft"
      },
      "geometry": {
        "type": "LineString",
        "coordinates": [
          [
            114.89749999962538,
            30.387499999625334
          ],
          [
            114.89849999962539,
            30.388499999625335
          ]
        ]
      }
    },
    {
      "type": "Feature",
      "id": "HR_40667743",
      "properties": {
        "id": "HR_40667743",
        "flowDirection": "topology_ordered_flowthrough",
        "fromSubbasin": "PF_465303",
        "toSubbasin": "PF_465303",
        "downstreamSubbasin": "PF_465301",
        "flowThrough": [
          "PF_465303"
        ],
        "sourceHydroRiverId": 40667743,
        "method": "formal_centroid_line_from_hydrorivers_flowthrough_draft"
      },
      "geometry": {
        "type": "LineString",
        "coordinates": [
          [
            114.89749999962538,
            30.387499999625334
          ],
          [
            114.89849999962539,
            30.388499999625335
          ]
        ]
      }
    },
    {
      "type": "Feature",
      "id": "HR_40667902",
      "properties": {
        "id": "HR_40667902",
        "flowDirection": "topology_ordered_flowthrough",
        "fromSubbasin": "PF_465302",
        "toSubbasin": "PF_465303",
        "downstreamSubbasin": "PF_465301",
        "flowThrough": [
          "PF_465302",
          "PF_465303"
        ],
        "sourceHydroRiverId": 40667902,
        "method": "formal_centroid_line_from_hydrorivers_flowthrough_draft"
      },
      "geometry": {
        "type": "LineString",
        "coordinates": [
          [
            115.35458333300443,
            30.879166666508496
          ],
          [
            114.89749999962538,
            30.387499999625334
          ]
        ]
      }
    },
    {
      "type": "Feature",
      "id": "HR_40667900",
      "properties": {
        "id": "HR_40667900",
        "flowDirection": "topology_ordered_flowthrough",
        "fromSubbasin": "PF_465303",
        "toSubbasin": "PF_465303",
        "downstreamSubbasin": "PF_465301",
        "flowThrough": [
          "PF_465303"
        ],
        "sourceHydroRiverId": 40667900,
        "method": "formal_centroid_line_from_hydrorivers_flowthrough_draft"
      },
      "geometry": {
        "type": "LineString",
        "coordinates": [
          [
            114.89749999962538,
            30.387499999625334
          ],
          [
            114.89849999962539,
            30.388499999625335
          ]
        ]
      }
    },
    {
      "type": "Feature",
      "id": "HR_40662833",
      "properties": {
        "id": "HR_40662833",
        "flowDirection": "topology_ordered_flowthrough",
        "fromSubbasin": "PF_465305",
        "toSubbasin": "PF_465305",
        "downstreamSubbasin": "PF_465303",
        "flowThrough": [
          "PF_465305"
        ],
        "sourceHydroRiverId": 40662833,
        "method": "formal_centroid_line_from_hydrorivers_flowthrough_draft"
      },
      "geometry": {
        "type": "LineString",
        "coordinates": [
          [
            114.83250000002505,
            30.59041666699565
          ],
          [
            114.83350000002505,
            30.591416666995652
          ]
        ]
      }
    },
    {
      "type": "Feature",
      "id": "HR_40662661",
      "properties": {
        "id": "HR_40662661",
        "flowDirection": "topology_ordered_flowthrough",
        "fromSubbasin": "PF_465305",
        "toSubbasin": "PF_465305",
        "downstreamSubbasin": "PF_465303",
        "flowThrough": [
          "PF_465305"
        ],
        "sourceHydroRiverId": 40662661,
        "method": "formal_centroid_line_from_hydrorivers_flowthrough_draft"
      },
      "geometry": {
        "type": "LineString",
        "coordinates": [
          [
            114.83250000002505,
            30.59041666699565
          ],
          [
            114.83350000002505,
            30.591416666995652
          ]
        ]
      }
    },
    {
      "type": "Feature",
      "id": "HR_40664200",
      "properties": {
        "id": "HR_40664200",
        "flowDirection": "topology_ordered_flowthrough",
        "fromSubbasin": "PF_465305",
        "toSubbasin": "PF_465305",
        "downstreamSubbasin": "PF_465303",
        "flowThrough": [
          "PF_465305"
        ],
        "sourceHydroRiverId": 40664200,
        "method": "formal_centroid_line_from_hydrorivers_flowthrough_draft"
      },
      "geometry": {
        "type": "LineString",
        "coordinates": [
          [
            114.83250000002505,
            30.59041666699565
          ],
          [
            114.83350000002505,
            30.591416666995652
          ]
        ]
      }
    },
    {
      "type": "Feature",
      "id": "HR_40665038",
      "properties": {
        "id": "HR_40665038",
        "flowDirection": "topology_ordered_flowthrough",
        "fromSubbasin": "PF_465305",
        "toSubbasin": "PF_465305",
        "downstreamSubbasin": "PF_465303",
        "flowThrough": [
          "PF_465305"
        ],
        "sourceHydroRiverId": 40665038,
        "method": "formal_centroid_line_from_hydrorivers_flowthrough_draft"
      },
      "geometry": {
        "type": "LineString",
        "coordinates": [
          [
            114.83250000002505,
            30.59041666699565
          ],
          [
            114.83350000002505,
            30.591416666995652
          ]
        ]
      }
    },
    {
      "type": "Feature",
      "id": "HR_40666177",
      "properties": {
        "id": "HR_40666177",
        "flowDirection": "topology_ordered_flowthrough",
        "fromSubbasin": "PF_465305",
        "toSubbasin": "PF_465305",
        "downstreamSubbasin": "PF_465303",
        "flowThrough": [
          "PF_465305"
        ],
        "sourceHydroRiverId": 40666177,
        "method": "formal_centroid_line_from_hydrorivers_flowthrough_draft"
      },
      "geometry": {
        "type": "LineString",
        "coordinates": [
          [
            114.83250000002505,
            30.59041666699565
          ],
          [
            114.83350000002505,
            30.591416666995652
          ]
        ]
      }
    },
    {
      "type": "Feature",
      "id": "HR_40666512",
      "properties": {
        "id": "HR_40666512",
        "flowDirection": "topology_ordered_flowthrough",
        "fromSubbasin": "PF_465305",
        "toSubbasin": "PF_465305",
        "downstreamSubbasin": "PF_465303",
        "flowThrough": [
          "PF_465305"
        ],
        "sourceHydroRiverId": 40666512,
        "method": "formal_centroid_line_from_hydrorivers_flowthrough_draft"
      },
      "geometry": {
        "type": "LineString",
        "coordinates": [
          [
            114.83250000002505,
            30.59041666699565
          ],
          [
            114.83350000002505,
            30.591416666995652
          ]
        ]
      }
    },
    {
      "type": "Feature",
      "id": "HR_40667035",
      "properties": {
        "id": "HR_40667035",
        "flowDirection": "topology_ordered_flowthrough",
        "fromSubbasin": "PF_465305",
        "toSubbasin": "PF_465305",
        "downstreamSubbasin": "PF_465303",
        "flowThrough": [
          "PF_465305"
        ],
        "sourceHydroRiverId": 40667035,
        "method": "formal_centroid_line_from_hydrorivers_flowthrough_draft"
      },
      "geometry": {
        "type": "LineString",
        "coordinates": [
          [
            114.83250000002505,
            30.59041666699565
          ],
          [
            114.83350000002505,
            30.591416666995652
          ]
        ]
      }
    },
    {
      "type": "Feature",
      "id": "HR_40660794",
      "properties": {
        "id": "HR_40660794",
        "flowDirection": "topology_ordered_flowthrough",
        "fromSubbasin": "PF_465307",
        "toSubbasin": "PF_465307",
        "downstreamSubbasin": "PF_465305",
        "flowThrough": [
          "PF_465307"
        ],
        "sourceHydroRiverId": 40660794,
        "method": "formal_centroid_line_from_hydrorivers_flowthrough_draft"
      },
      "geometry": {
        "type": "LineString",
        "coordinates": [
          [
            114.61791666652101,
            31.00541666634612
          ],
          [
            114.61891666652102,
            31.006416666346123
          ]
        ]
      }
    },
    {
      "type": "Feature",
      "id": "HR_40661309",
      "properties": {
        "id": "HR_40661309",
        "flowDirection": "topology_ordered_flowthrough",
        "fromSubbasin": "PF_465307",
        "toSubbasin": "PF_465307",
        "downstreamSubbasin": "PF_465305",
        "flowThrough": [
          "PF_465307"
        ],
        "sourceHydroRiverId": 40661309,
        "method": "formal_centroid_line_from_hydrorivers_flowthrough_draft"
      },
      "geometry": {
        "type": "LineString",
        "coordinates": [
          [
            114.61791666652101,
            31.00541666634612
          ],
          [
            114.61891666652102,
            31.006416666346123
          ]
        ]
      }
    },
    {
      "type": "Feature",
      "id": "HR_40661819",
      "properties": {
        "id": "HR_40661819",
        "flowDirection": "topology_ordered_flowthrough",
        "fromSubbasin": "PF_465307",
        "toSubbasin": "PF_465307",
        "downstreamSubbasin": "PF_465305",
        "flowThrough": [
          "PF_465307"
        ],
        "sourceHydroRiverId": 40661819,
        "method": "formal_centroid_line_from_hydrorivers_flowthrough_draft"
      },
      "geometry": {
        "type": "LineString",
        "coordinates": [
          [
            114.61791666652101,
            31.00541666634612
          ],
          [
            114.61891666652102,
            31.006416666346123
          ]
        ]
      }
    },
    {
      "type": "Feature",
      "id": "HR_40660037",
      "properties": {
        "id": "HR_40660037",
        "flowDirection": "topology_ordered_flowthrough",
        "fromSubbasin": "PF_465307",
        "toSubbasin": "PF_465305",
        "downstreamSubbasin": "PF_465303",
        "flowThrough": [
          "PF_465307",
          "PF_465305"
        ],
        "sourceHydroRiverId": 40660037,
        "method": "formal_centroid_line_from_hydrorivers_flowthrough_draft"
      },
      "geometry": {
        "type": "LineString",
        "coordinates": [
          [
            114.61791666652101,
            31.00541666634612
          ],
          [
            114.83250000002505,
            30.59041666699565
          ]
        ]
      }
    },
    {
      "type": "Feature",
      "id": "HR_40661821",
      "properties": {
        "id": "HR_40661821",
        "flowDirection": "topology_ordered_flowthrough",
        "fromSubbasin": "PF_465305",
        "toSubbasin": "PF_465305",
        "downstreamSubbasin": "PF_465303",
        "flowThrough": [
          "PF_465305"
        ],
        "sourceHydroRiverId": 40661821,
        "method": "formal_centroid_line_from_hydrorivers_flowthrough_draft"
      },
      "geometry": {
        "type": "LineString",
        "coordinates": [
          [
            114.83250000002505,
            30.59041666699565
          ],
          [
            114.83350000002505,
            30.591416666995652
          ]
        ]
      }
    },
    {
      "type": "Feature",
      "id": "HR_40658095",
      "properties": {
        "id": "HR_40658095",
        "flowDirection": "topology_ordered_flowthrough",
        "fromSubbasin": "PF_465307",
        "toSubbasin": "PF_465307",
        "downstreamSubbasin": "PF_465305",
        "flowThrough": [
          "PF_465307"
        ],
        "sourceHydroRiverId": 40658095,
        "method": "formal_centroid_line_from_hydrorivers_flowthrough_draft"
      },
      "geometry": {
        "type": "LineString",
        "coordinates": [
          [
            114.61791666652101,
            31.00541666634612
          ],
          [
            114.61891666652102,
            31.006416666346123
          ]
        ]
      }
    },
    {
      "type": "Feature",
      "id": "HR_40659857",
      "properties": {
        "id": "HR_40659857",
        "flowDirection": "topology_ordered_flowthrough",
        "fromSubbasin": "PF_465307",
        "toSubbasin": "PF_465307",
        "downstreamSubbasin": "PF_465305",
        "flowThrough": [
          "PF_465307"
        ],
        "sourceHydroRiverId": 40659857,
        "method": "formal_centroid_line_from_hydrorivers_flowthrough_draft"
      },
      "geometry": {
        "type": "LineString",
        "coordinates": [
          [
            114.61791666652101,
            31.00541666634612
          ],
          [
            114.61891666652102,
            31.006416666346123
          ]
        ]
      }
    },
    {
      "type": "Feature",
      "id": "HR_40659691",
      "properties": {
        "id": "HR_40659691",
        "flowDirection": "topology_ordered_flowthrough",
        "fromSubbasin": "PF_465307",
        "toSubbasin": "PF_465307",
        "downstreamSubbasin": "PF_465305",
        "flowThrough": [
          "PF_465307"
        ],
        "sourceHydroRiverId": 40659691,
        "method": "formal_centroid_line_from_hydrorivers_flowthrough_draft"
      },
      "geometry": {
        "type": "LineString",
        "coordinates": [
          [
            114.61791666652101,
            31.00541666634612
          ],
          [
            114.61891666652102,
            31.006416666346123
          ]
        ]
      }
    },
    {
      "type": "Feature",
      "id": "HR_40656986",
      "properties": {
        "id": "HR_40656986",
        "flowDirection": "topology_ordered_flowthrough",
        "fromSubbasin": "PF_465308",
        "toSubbasin": "PF_465309",
        "downstreamSubbasin": "PF_465305",
        "flowThrough": [
          "PF_465308",
          "PF_465309",
          "PF_465307"
        ],
        "sourceHydroRiverId": 40656986,
        "method": "formal_centroid_line_from_hydrorivers_flowthrough_draft"
      },
      "geometry": {
        "type": "LineString",
        "coordinates": [
          [
            114.37249999977519,
            31.081666666283667
          ],
          [
            114.40916666675832,
            30.659166666408595
          ],
          [
            114.61791666652101,
            31.00541666634612
          ]
        ]
      }
    },
    {
      "type": "Feature",
      "id": "HR_40657464",
      "properties": {
        "id": "HR_40657464",
        "flowDirection": "topology_ordered_flowthrough",
        "fromSubbasin": "PF_465307",
        "toSubbasin": "PF_465307",
        "downstreamSubbasin": "PF_465305",
        "flowThrough": [
          "PF_465307"
        ],
        "sourceHydroRiverId": 40657464,
        "method": "formal_centroid_line_from_hydrorivers_flowthrough_draft"
      },
      "geometry": {
        "type": "LineString",
        "coordinates": [
          [
            114.61791666652101,
            31.00541666634612
          ],
          [
            114.61891666652102,
            31.006416666346123
          ]
        ]
      }
    },
    {
      "type": "Feature",
      "id": "HR_40666001",
      "properties": {
        "id": "HR_40666001",
        "flowDirection": "topology_ordered_flowthrough",
        "fromSubbasin": "PF_465702",
        "toSubbasin": "PF_465701",
        "downstreamSubbasin": "PF_465500",
        "flowThrough": [
          "PF_465702",
          "PF_465701"
        ],
        "sourceHydroRiverId": 40666001,
        "method": "formal_centroid_line_from_hydrorivers_flowthrough_draft"
      },
      "geometry": {
        "type": "LineString",
        "coordinates": [
          [
            113.85833333356658,
            30.434166666858232
          ],
          [
            114.32708333307937,
            30.4558333332418
          ]
        ]
      }
    },
    {
      "type": "Feature",
      "id": "HR_40665036",
      "properties": {
        "id": "HR_40665036",
        "flowDirection": "topology_ordered_flowthrough",
        "fromSubbasin": "PF_465701",
        "toSubbasin": "PF_465701",
        "downstreamSubbasin": "PF_465500",
        "flowThrough": [
          "PF_465701"
        ],
        "sourceHydroRiverId": 40665036,
        "method": "formal_centroid_line_from_hydrorivers_flowthrough_draft"
      },
      "geometry": {
        "type": "LineString",
        "coordinates": [
          [
            114.32708333307937,
            30.4558333332418
          ],
          [
            114.32808333307938,
            30.4568333332418
          ]
        ]
      }
    },
    {
      "type": "Feature",
      "id": "HR_40668872",
      "properties": {
        "id": "HR_40668872",
        "flowDirection": "topology_ordered_flowthrough",
        "fromSubbasin": "PF_465703",
        "toSubbasin": "PF_465701",
        "downstreamSubbasin": "PF_465500",
        "flowThrough": [
          "PF_465703",
          "PF_465701"
        ],
        "sourceHydroRiverId": 40668872,
        "method": "formal_centroid_line_from_hydrorivers_flowthrough_draft"
      },
      "geometry": {
        "type": "LineString",
        "coordinates": [
          [
            114.16458333340415,
            30.397083333629013
          ],
          [
            114.32708333307937,
            30.4558333332418
          ]
        ]
      }
    },
    {
      "type": "Feature",
      "id": "HR_40670025",
      "properties": {
        "id": "HR_40670025",
        "flowDirection": "topology_ordered_flowthrough",
        "fromSubbasin": "PF_465705",
        "toSubbasin": "PF_465703",
        "downstreamSubbasin": "PF_465701",
        "flowThrough": [
          "PF_465705",
          "PF_465703"
        ],
        "sourceHydroRiverId": 40670025,
        "method": "formal_centroid_line_from_hydrorivers_flowthrough_draft"
      },
      "geometry": {
        "type": "LineString",
        "coordinates": [
          [
            113.94703244667018,
            30.26500000005001
          ],
          [
            114.16458333340415,
            30.397083333629013
          ]
        ]
      }
    },
    {
      "type": "Feature",
      "id": "HR_40671951",
      "properties": {
        "id": "HR_40671951",
        "flowDirection": "topology_ordered_flowthrough",
        "fromSubbasin": "PF_465705",
        "toSubbasin": "PF_465705",
        "downstreamSubbasin": "PF_465703",
        "flowThrough": [
          "PF_465705"
        ],
        "sourceHydroRiverId": 40671951,
        "method": "formal_centroid_line_from_hydrorivers_flowthrough_draft"
      },
      "geometry": {
        "type": "LineString",
        "coordinates": [
          [
            113.94703244667018,
            30.26500000005001
          ],
          [
            113.94803244667018,
            30.26600000005001
          ]
        ]
      }
    },
    {
      "type": "Feature",
      "id": "HR_40672628",
      "properties": {
        "id": "HR_40672628",
        "flowDirection": "topology_ordered_flowthrough",
        "fromSubbasin": "PF_465705",
        "toSubbasin": "PF_465705",
        "downstreamSubbasin": "PF_465703",
        "flowThrough": [
          "PF_465705"
        ],
        "sourceHydroRiverId": 40672628,
        "method": "formal_centroid_line_from_hydrorivers_flowthrough_draft"
      },
      "geometry": {
        "type": "LineString",
        "coordinates": [
          [
            113.94703244667018,
            30.26500000005001
          ],
          [
            113.94803244667018,
            30.26600000005001
          ]
        ]
      }
    },
    {
      "type": "Feature",
      "id": "HR_40674849",
      "properties": {
        "id": "HR_40674849",
        "flowDirection": "topology_ordered_flowthrough",
        "fromSubbasin": "PF_465705",
        "toSubbasin": "PF_465705",
        "downstreamSubbasin": "PF_465703",
        "flowThrough": [
          "PF_465705"
        ],
        "sourceHydroRiverId": 40674849,
        "method": "formal_centroid_line_from_hydrorivers_flowthrough_draft"
      },
      "geometry": {
        "type": "LineString",
        "coordinates": [
          [
            113.94703244667018,
            30.26500000005001
          ],
          [
            113.94803244667018,
            30.26600000005001
          ]
        ]
      }
    },
    {
      "type": "Feature",
      "id": "HR_40675002",
      "properties": {
        "id": "HR_40675002",
        "flowDirection": "topology_ordered_flowthrough",
        "fromSubbasin": "PF_465705",
        "toSubbasin": "PF_465705",
        "downstreamSubbasin": "PF_465703",
        "flowThrough": [
          "PF_465705"
        ],
        "sourceHydroRiverId": 40675002,
        "method": "formal_centroid_line_from_hydrorivers_flowthrough_draft"
      },
      "geometry": {
        "type": "LineString",
        "coordinates": [
          [
            113.94703244667018,
            30.26500000005001
          ],
          [
            113.94803244667018,
            30.26600000005001
          ]
        ]
      }
    },
    {
      "type": "Feature",
      "id": "HR_40675001",
      "properties": {
        "id": "HR_40675001",
        "flowDirection": "topology_ordered_flowthrough",
        "fromSubbasin": "PF_465705",
        "toSubbasin": "PF_465705",
        "downstreamSubbasin": "PF_465703",
        "flowThrough": [
          "PF_465705"
        ],
        "sourceHydroRiverId": 40675001,
        "method": "formal_centroid_line_from_hydrorivers_flowthrough_draft"
      },
      "geometry": {
        "type": "LineString",
        "coordinates": [
          [
            113.94703244667018,
            30.26500000005001
          ],
          [
            113.94803244667018,
            30.26600000005001
          ]
        ]
      }
    },
    {
      "type": "Feature",
      "id": "HR_40673984",
      "properties": {
        "id": "HR_40673984",
        "flowDirection": "topology_ordered_flowthrough",
        "fromSubbasin": "PF_465705",
        "toSubbasin": "PF_465705",
        "downstreamSubbasin": "PF_465703",
        "flowThrough": [
          "PF_465705"
        ],
        "sourceHydroRiverId": 40673984,
        "method": "formal_centroid_line_from_hydrorivers_flowthrough_draft"
      },
      "geometry": {
        "type": "LineString",
        "coordinates": [
          [
            113.94703244667018,
            30.26500000005001
          ],
          [
            113.94803244667018,
            30.26600000005001
          ]
        ]
      }
    },
    {
      "type": "Feature",
      "id": "HR_40663719",
      "properties": {
        "id": "HR_40663719",
        "flowDirection": "topology_ordered_flowthrough",
        "fromSubbasin": "PF_465701",
        "toSubbasin": "PF_465701",
        "downstreamSubbasin": "PF_465500",
        "flowThrough": [
          "PF_465701"
        ],
        "sourceHydroRiverId": 40663719,
        "method": "formal_centroid_line_from_hydrorivers_flowthrough_draft"
      },
      "geometry": {
        "type": "LineString",
        "coordinates": [
          [
            114.32708333307937,
            30.4558333332418
          ],
          [
            114.32808333307938,
            30.4568333332418
          ]
        ]
      }
    },
    {
      "type": "Feature",
      "id": "HR_40663262",
      "properties": {
        "id": "HR_40663262",
        "flowDirection": "topology_ordered_flowthrough",
        "fromSubbasin": "PF_465701",
        "toSubbasin": "PF_465701",
        "downstreamSubbasin": "PF_465500",
        "flowThrough": [
          "PF_465701"
        ],
        "sourceHydroRiverId": 40663262,
        "method": "formal_centroid_line_from_hydrorivers_flowthrough_draft"
      },
      "geometry": {
        "type": "LineString",
        "coordinates": [
          [
            114.32708333307937,
            30.4558333332418
          ],
          [
            114.32808333307938,
            30.4568333332418
          ]
        ]
      }
    },
    {
      "type": "Feature",
      "id": "HR_40675672",
      "properties": {
        "id": "HR_40675672",
        "flowDirection": "topology_ordered_flowthrough",
        "fromSubbasin": "PF_465705",
        "toSubbasin": "PF_465705",
        "downstreamSubbasin": "PF_465703",
        "flowThrough": [
          "PF_465705"
        ],
        "sourceHydroRiverId": 40675672,
        "method": "formal_centroid_line_from_hydrorivers_flowthrough_draft"
      },
      "geometry": {
        "type": "LineString",
        "coordinates": [
          [
            113.94703244667018,
            30.26500000005001
          ],
          [
            113.94803244667018,
            30.26600000005001
          ]
        ]
      }
    },
    {
      "type": "Feature",
      "id": "HR_40663114",
      "properties": {
        "id": "HR_40663114",
        "flowDirection": "topology_ordered_flowthrough",
        "fromSubbasin": "PF_465610",
        "toSubbasin": "PF_465701",
        "downstreamSubbasin": "PF_465500",
        "flowThrough": [
          "PF_465610",
          "PF_465701"
        ],
        "sourceHydroRiverId": 40663114,
        "method": "formal_centroid_line_from_hydrorivers_flowthrough_draft"
      },
      "geometry": {
        "type": "LineString",
        "coordinates": [
          [
            113.91166666703316,
            30.56583333374141
          ],
          [
            114.32708333307937,
            30.4558333332418
          ]
        ]
      }
    },
    {
      "type": "Feature",
      "id": "HR_40676348",
      "properties": {
        "id": "HR_40676348",
        "flowDirection": "topology_ordered_flowthrough",
        "fromSubbasin": "PF_465705",
        "toSubbasin": "PF_465705",
        "downstreamSubbasin": "PF_465703",
        "flowThrough": [
          "PF_465705"
        ],
        "sourceHydroRiverId": 40676348,
        "method": "formal_centroid_line_from_hydrorivers_flowthrough_draft"
      },
      "geometry": {
        "type": "LineString",
        "coordinates": [
          [
            113.94703244667018,
            30.26500000005001
          ],
          [
            113.94803244667018,
            30.26600000005001
          ]
        ]
      }
    },
    {
      "type": "Feature",
      "id": "HR_40676538",
      "properties": {
        "id": "HR_40676538",
        "flowDirection": "topology_ordered_flowthrough",
        "fromSubbasin": "PF_465707",
        "toSubbasin": "PF_465707",
        "downstreamSubbasin": "PF_465705",
        "flowThrough": [
          "PF_465707"
        ],
        "sourceHydroRiverId": 40676538,
        "method": "formal_centroid_line_from_hydrorivers_flowthrough_draft"
      },
      "geometry": {
        "type": "LineString",
        "coordinates": [
          [
            113.91858882349788,
            30.012500000374757
          ],
          [
            113.91958882349789,
            30.01350000037476
          ]
        ]
      }
    },
    {
      "type": "Feature",
      "id": "HR_40676539",
      "properties": {
        "id": "HR_40676539",
        "flowDirection": "topology_ordered_flowthrough",
        "fromSubbasin": "PF_465707",
        "toSubbasin": "PF_465707",
        "downstreamSubbasin": "PF_465705",
        "flowThrough": [
          "PF_465707"
        ],
        "sourceHydroRiverId": 40676539,
        "method": "formal_centroid_line_from_hydrorivers_flowthrough_draft"
      },
      "geometry": {
        "type": "LineString",
        "coordinates": [
          [
            113.91858882349788,
            30.012500000374757
          ],
          [
            113.91958882349789,
            30.01350000037476
          ]
        ]
      }
    },
    {
      "type": "Feature",
      "id": "HR_40676168",
      "properties": {
        "id": "HR_40676168",
        "flowDirection": "topology_ordered_flowthrough",
        "fromSubbasin": "PF_465707",
        "toSubbasin": "PF_465707",
        "downstreamSubbasin": "PF_465705",
        "flowThrough": [
          "PF_465707"
        ],
        "sourceHydroRiverId": 40676168,
        "method": "formal_centroid_line_from_hydrorivers_flowthrough_draft"
      },
      "geometry": {
        "type": "LineString",
        "coordinates": [
          [
            113.91858882349788,
            30.012500000374757
          ],
          [
            113.91958882349789,
            30.01350000037476
          ]
        ]
      }
    },
    {
      "type": "Feature",
      "id": "HR_40675992",
      "properties": {
        "id": "HR_40675992",
        "flowDirection": "topology_ordered_flowthrough",
        "fromSubbasin": "PF_465707",
        "toSubbasin": "PF_465707",
        "downstreamSubbasin": "PF_465705",
        "flowThrough": [
          "PF_465707"
        ],
        "sourceHydroRiverId": 40675992,
        "method": "formal_centroid_line_from_hydrorivers_flowthrough_draft"
      },
      "geometry": {
        "type": "LineString",
        "coordinates": [
          [
            113.91858882349788,
            30.012500000374757
          ],
          [
            113.91958882349789,
            30.01350000037476
          ]
        ]
      }
    },
    {
      "type": "Feature",
      "id": "HR_40677045",
      "properties": {
        "id": "HR_40677045",
        "flowDirection": "topology_ordered_flowthrough",
        "fromSubbasin": "PF_465707",
        "toSubbasin": "PF_465707",
        "downstreamSubbasin": "PF_465705",
        "flowThrough": [
          "PF_465707"
        ],
        "sourceHydroRiverId": 40677045,
        "method": "formal_centroid_line_from_hydrorivers_flowthrough_draft"
      },
      "geometry": {
        "type": "LineString",
        "coordinates": [
          [
            113.91858882349788,
            30.012500000374757
          ],
          [
            113.91958882349789,
            30.01350000037476
          ]
        ]
      }
    },
    {
      "type": "Feature",
      "id": "HR_40678398",
      "properties": {
        "id": "HR_40678398",
        "flowDirection": "topology_ordered_flowthrough",
        "fromSubbasin": "PF_465707",
        "toSubbasin": "PF_465707",
        "downstreamSubbasin": "PF_465705",
        "flowThrough": [
          "PF_465707"
        ],
        "sourceHydroRiverId": 40678398,
        "method": "formal_centroid_line_from_hydrorivers_flowthrough_draft"
      },
      "geometry": {
        "type": "LineString",
        "coordinates": [
          [
            113.91858882349788,
            30.012500000374757
          ],
          [
            113.91958882349789,
            30.01350000037476
          ]
        ]
      }
    },
    {
      "type": "Feature",
      "id": "HR_40679185",
      "properties": {
        "id": "HR_40679185",
        "flowDirection": "topology_ordered_flowthrough",
        "fromSubbasin": "PF_465707",
        "toSubbasin": "PF_465707",
        "downstreamSubbasin": "PF_465705",
        "flowThrough": [
          "PF_465707"
        ],
        "sourceHydroRiverId": 40679185,
        "method": "formal_centroid_line_from_hydrorivers_flowthrough_draft"
      },
      "geometry": {
        "type": "LineString",
        "coordinates": [
          [
            113.91858882349788,
            30.012500000374757
          ],
          [
            113.91958882349789,
            30.01350000037476
          ]
        ]
      }
    },
    {
      "type": "Feature",
      "id": "HR_40682160",
      "properties": {
        "id": "HR_40682160",
        "flowDirection": "topology_ordered_flowthrough",
        "fromSubbasin": "PF_465707",
        "toSubbasin": "PF_465707",
        "downstreamSubbasin": "PF_465705",
        "flowThrough": [
          "PF_465707"
        ],
        "sourceHydroRiverId": 40682160,
        "method": "formal_centroid_line_from_hydrorivers_flowthrough_draft"
      },
      "geometry": {
        "type": "LineString",
        "coordinates": [
          [
            113.91858882349788,
            30.012500000374757
          ],
          [
            113.91958882349789,
            30.01350000037476
          ]
        ]
      }
    },
    {
      "type": "Feature",
      "id": "HR_40682546",
      "properties": {
        "id": "HR_40682546",
        "flowDirection": "topology_ordered_flowthrough",
        "fromSubbasin": "PF_465707",
        "toSubbasin": "PF_465707",
        "downstreamSubbasin": "PF_465705",
        "flowThrough": [
          "PF_465707"
        ],
        "sourceHydroRiverId": 40682546,
        "method": "formal_centroid_line_from_hydrorivers_flowthrough_draft"
      },
      "geometry": {
        "type": "LineString",
        "coordinates": [
          [
            113.91858882349788,
            30.012500000374757
          ],
          [
            113.91958882349789,
            30.01350000037476
          ]
        ]
      }
    },
    {
      "type": "Feature",
      "id": "HR_40682889",
      "properties": {
        "id": "HR_40682889",
        "flowDirection": "topology_ordered_flowthrough",
        "fromSubbasin": "PF_465707",
        "toSubbasin": "PF_465707",
        "downstreamSubbasin": "PF_465705",
        "flowThrough": [
          "PF_465707"
        ],
        "sourceHydroRiverId": 40682889,
        "method": "formal_centroid_line_from_hydrorivers_flowthrough_draft"
      },
      "geometry": {
        "type": "LineString",
        "coordinates": [
          [
            113.91858882349788,
            30.012500000374757
          ],
          [
            113.91958882349789,
            30.01350000037476
          ]
        ]
      }
    },
    {
      "type": "Feature",
      "id": "HR_40683093",
      "properties": {
        "id": "HR_40683093",
        "flowDirection": "topology_ordered_flowthrough",
        "fromSubbasin": "PF_465707",
        "toSubbasin": "PF_465707",
        "downstreamSubbasin": "PF_465705",
        "flowThrough": [
          "PF_465707"
        ],
        "sourceHydroRiverId": 40683093,
        "method": "formal_centroid_line_from_hydrorivers_flowthrough_draft"
      },
      "geometry": {
        "type": "LineString",
        "coordinates": [
          [
            113.91858882349788,
            30.012500000374757
          ],
          [
            113.91958882349789,
            30.01350000037476
          ]
        ]
      }
    },
    {
      "type": "Feature",
      "id": "HR_40684040",
      "properties": {
        "id": "HR_40684040",
        "flowDirection": "topology_ordered_flowthrough",
        "fromSubbasin": "PF_465707",
        "toSubbasin": "PF_465707",
        "downstreamSubbasin": "PF_465705",
        "flowThrough": [
          "PF_465707"
        ],
        "sourceHydroRiverId": 40684040,
        "method": "formal_centroid_line_from_hydrorivers_flowthrough_draft"
      },
      "geometry": {
        "type": "LineString",
        "coordinates": [
          [
            113.91858882349788,
            30.012500000374757
          ],
          [
            113.91958882349789,
            30.01350000037476
          ]
        ]
      }
    },
    {
      "type": "Feature",
      "id": "HR_40684551",
      "properties": {
        "id": "HR_40684551",
        "flowDirection": "topology_ordered_flowthrough",
        "fromSubbasin": "PF_465707",
        "toSubbasin": "PF_465707",
        "downstreamSubbasin": "PF_465705",
        "flowThrough": [
          "PF_465707"
        ],
        "sourceHydroRiverId": 40684551,
        "method": "formal_centroid_line_from_hydrorivers_flowthrough_draft"
      },
      "geometry": {
        "type": "LineString",
        "coordinates": [
          [
            113.91858882349788,
            30.012500000374757
          ],
          [
            113.91958882349789,
            30.01350000037476
          ]
        ]
      }
    },
    {
      "type": "Feature",
      "id": "HR_40684898",
      "properties": {
        "id": "HR_40684898",
        "flowDirection": "topology_ordered_flowthrough",
        "fromSubbasin": "PF_465707",
        "toSubbasin": "PF_465707",
        "downstreamSubbasin": "PF_465705",
        "flowThrough": [
          "PF_465707"
        ],
        "sourceHydroRiverId": 40684898,
        "method": "formal_centroid_line_from_hydrorivers_flowthrough_draft"
      },
      "geometry": {
        "type": "LineString",
        "coordinates": [
          [
            113.91858882349788,
            30.012500000374757
          ],
          [
            113.91958882349789,
            30.01350000037476
          ]
        ]
      }
    },
    {
      "type": "Feature",
      "id": "HR_40689774",
      "properties": {
        "id": "HR_40689774",
        "flowDirection": "topology_ordered_flowthrough",
        "fromSubbasin": "PF_465709",
        "toSubbasin": "PF_465709",
        "downstreamSubbasin": "PF_465707",
        "flowThrough": [
          "PF_465709"
        ],
        "sourceHydroRiverId": 40689774,
        "method": "formal_centroid_line_from_hydrorivers_flowthrough_draft"
      },
      "geometry": {
        "type": "LineString",
        "coordinates": [
          [
            113.62859139989774,
            29.692500000025035
          ],
          [
            113.62959139989775,
            29.693500000025036
          ]
        ]
      }
    },
    {
      "type": "Feature",
      "id": "HR_40658887",
      "properties": {
        "id": "HR_40658887",
        "flowDirection": "topology_ordered_flowthrough",
        "fromSubbasin": "PF_465621",
        "toSubbasin": "PF_465631",
        "downstreamSubbasin": "PF_465500",
        "flowThrough": [
          "PF_465621",
          "PF_465631",
          "PF_465610"
        ],
        "sourceHydroRiverId": 40658887,
        "method": "formal_centroid_line_from_hydrorivers_flowthrough_draft"
      },
      "geometry": {
        "type": "LineString",
        "coordinates": [
          [
            113.67374999991267,
            30.809166667008128
          ],
          [
            113.85041666679581,
            30.650000000000063
          ],
          [
            113.91166666703316,
            30.56583333374141
          ]
        ]
      }
    },
    {
      "type": "Feature",
      "id": "HR_40659855",
      "properties": {
        "id": "HR_40659855",
        "flowDirection": "topology_ordered_flowthrough",
        "fromSubbasin": "PF_465610",
        "toSubbasin": "PF_465610",
        "downstreamSubbasin": "PF_465500",
        "flowThrough": [
          "PF_465610"
        ],
        "sourceHydroRiverId": 40659855,
        "method": "formal_centroid_line_from_hydrorivers_flowthrough_draft"
      },
      "geometry": {
        "type": "LineString",
        "coordinates": [
          [
            113.91166666703316,
            30.56583333374141
          ],
          [
            113.91266666703316,
            30.56683333374141
          ]
        ]
      }
    },
    {
      "type": "Feature",
      "id": "HR_40660646",
      "properties": {
        "id": "HR_40660646",
        "flowDirection": "topology_ordered_flowthrough",
        "fromSubbasin": "PF_465610",
        "toSubbasin": "PF_465610",
        "downstreamSubbasin": "PF_465500",
        "flowThrough": [
          "PF_465610"
        ],
        "sourceHydroRiverId": 40660646,
        "method": "formal_centroid_line_from_hydrorivers_flowthrough_draft"
      },
      "geometry": {
        "type": "LineString",
        "coordinates": [
          [
            113.91166666703316,
            30.56583333374141
          ],
          [
            113.91266666703316,
            30.56683333374141
          ]
        ]
      }
    },
    {
      "type": "Feature",
      "id": "HR_40660647",
      "properties": {
        "id": "HR_40660647",
        "flowDirection": "topology_ordered_flowthrough",
        "fromSubbasin": "PF_465610",
        "toSubbasin": "PF_465610",
        "downstreamSubbasin": "PF_465500",
        "flowThrough": [
          "PF_465610"
        ],
        "sourceHydroRiverId": 40660647,
        "method": "formal_centroid_line_from_hydrorivers_flowthrough_draft"
      },
      "geometry": {
        "type": "LineString",
        "coordinates": [
          [
            113.91166666703316,
            30.56583333374141
          ],
          [
            113.91266666703316,
            30.56683333374141
          ]
        ]
      }
    },
    {
      "type": "Feature",
      "id": "HR_40660500",
      "properties": {
        "id": "HR_40660500",
        "flowDirection": "topology_ordered_flowthrough",
        "fromSubbasin": "PF_465610",
        "toSubbasin": "PF_465610",
        "downstreamSubbasin": "PF_465500",
        "flowThrough": [
          "PF_465610"
        ],
        "sourceHydroRiverId": 40660500,
        "method": "formal_centroid_line_from_hydrorivers_flowthrough_draft"
      },
      "geometry": {
        "type": "LineString",
        "coordinates": [
          [
            113.91166666703316,
            30.56583333374141
          ],
          [
            113.91266666703316,
            30.56683333374141
          ]
        ]
      }
    },
    {
      "type": "Feature",
      "id": "HR_40660793",
      "properties": {
        "id": "HR_40660793",
        "flowDirection": "topology_ordered_flowthrough",
        "fromSubbasin": "PF_465610",
        "toSubbasin": "PF_465610",
        "downstreamSubbasin": "PF_465500",
        "flowThrough": [
          "PF_465610"
        ],
        "sourceHydroRiverId": 40660793,
        "method": "formal_centroid_line_from_hydrorivers_flowthrough_draft"
      },
      "geometry": {
        "type": "LineString",
        "coordinates": [
          [
            113.91166666703316,
            30.56583333374141
          ],
          [
            113.91266666703316,
            30.56683333374141
          ]
        ]
      }
    },
    {
      "type": "Feature",
      "id": "HR_40661305",
      "properties": {
        "id": "HR_40661305",
        "flowDirection": "topology_ordered_flowthrough",
        "fromSubbasin": "PF_465610",
        "toSubbasin": "PF_465610",
        "downstreamSubbasin": "PF_465500",
        "flowThrough": [
          "PF_465610"
        ],
        "sourceHydroRiverId": 40661305,
        "method": "formal_centroid_line_from_hydrorivers_flowthrough_draft"
      },
      "geometry": {
        "type": "LineString",
        "coordinates": [
          [
            113.91166666703316,
            30.56583333374141
          ],
          [
            113.91266666703316,
            30.56683333374141
          ]
        ]
      }
    },
    {
      "type": "Feature",
      "id": "HR_40661624",
      "properties": {
        "id": "HR_40661624",
        "flowDirection": "topology_ordered_flowthrough",
        "fromSubbasin": "PF_465401",
        "toSubbasin": "PF_465610",
        "downstreamSubbasin": "PF_465500",
        "flowThrough": [
          "PF_465401",
          "PF_465610"
        ],
        "sourceHydroRiverId": 40661624,
        "method": "formal_centroid_line_from_hydrorivers_flowthrough_draft"
      },
      "geometry": {
        "type": "LineString",
        "coordinates": [
          [
            114.07583333349163,
            30.8862500003373
          ],
          [
            113.91166666703316,
            30.56583333374141
          ]
        ]
      }
    },
    {
      "type": "Feature",
      "id": "HR_40657759",
      "properties": {
        "id": "HR_40657759",
        "flowDirection": "topology_ordered_flowthrough",
        "fromSubbasin": "PF_465621",
        "toSubbasin": "PF_465631",
        "downstreamSubbasin": "PF_465610",
        "flowThrough": [
          "PF_465621",
          "PF_465631"
        ],
        "sourceHydroRiverId": 40657759,
        "method": "formal_centroid_line_from_hydrorivers_flowthrough_draft"
      },
      "geometry": {
        "type": "LineString",
        "coordinates": [
          [
            113.67374999991267,
            30.809166667008128
          ],
          [
            113.85041666679581,
            30.650000000000063
          ]
        ]
      }
    },
    {
      "type": "Feature",
      "id": "HR_40659211",
      "properties": {
        "id": "HR_40659211",
        "flowDirection": "topology_ordered_flowthrough",
        "fromSubbasin": "PF_465631",
        "toSubbasin": "PF_465631",
        "downstreamSubbasin": "PF_465610",
        "flowThrough": [
          "PF_465631"
        ],
        "sourceHydroRiverId": 40659211,
        "method": "formal_centroid_line_from_hydrorivers_flowthrough_draft"
      },
      "geometry": {
        "type": "LineString",
        "coordinates": [
          [
            113.85041666679581,
            30.650000000000063
          ],
          [
            113.85141666679581,
            30.651000000000064
          ]
        ]
      }
    },
    {
      "type": "Feature",
      "id": "HR_40659364",
      "properties": {
        "id": "HR_40659364",
        "flowDirection": "topology_ordered_flowthrough",
        "fromSubbasin": "PF_465631",
        "toSubbasin": "PF_465631",
        "downstreamSubbasin": "PF_465610",
        "flowThrough": [
          "PF_465631"
        ],
        "sourceHydroRiverId": 40659364,
        "method": "formal_centroid_line_from_hydrorivers_flowthrough_draft"
      },
      "geometry": {
        "type": "LineString",
        "coordinates": [
          [
            113.85041666679581,
            30.650000000000063
          ],
          [
            113.85141666679581,
            30.651000000000064
          ]
        ]
      }
    },
    {
      "type": "Feature",
      "id": "HR_40658262",
      "properties": {
        "id": "HR_40658262",
        "flowDirection": "topology_ordered_flowthrough",
        "fromSubbasin": "PF_465631",
        "toSubbasin": "PF_465631",
        "downstreamSubbasin": "PF_465610",
        "flowThrough": [
          "PF_465631"
        ],
        "sourceHydroRiverId": 40658262,
        "method": "formal_centroid_line_from_hydrorivers_flowthrough_draft"
      },
      "geometry": {
        "type": "LineString",
        "coordinates": [
          [
            113.85041666679581,
            30.650000000000063
          ],
          [
            113.85141666679581,
            30.651000000000064
          ]
        ]
      }
    },
    {
      "type": "Feature",
      "id": "HR_40658420",
      "properties": {
        "id": "HR_40658420",
        "flowDirection": "topology_ordered_flowthrough",
        "fromSubbasin": "PF_465631",
        "toSubbasin": "PF_465631",
        "downstreamSubbasin": "PF_465610",
        "flowThrough": [
          "PF_465631"
        ],
        "sourceHydroRiverId": 40658420,
        "method": "formal_centroid_line_from_hydrorivers_flowthrough_draft"
      },
      "geometry": {
        "type": "LineString",
        "coordinates": [
          [
            113.85041666679581,
            30.650000000000063
          ],
          [
            113.85141666679581,
            30.651000000000064
          ]
        ]
      }
    },
    {
      "type": "Feature",
      "id": "HR_40660221",
      "properties": {
        "id": "HR_40660221",
        "flowDirection": "topology_ordered_flowthrough",
        "fromSubbasin": "PF_465633",
        "toSubbasin": "PF_465631",
        "downstreamSubbasin": "PF_465610",
        "flowThrough": [
          "PF_465633",
          "PF_465631"
        ],
        "sourceHydroRiverId": 40660221,
        "method": "formal_centroid_line_from_hydrorivers_flowthrough_draft"
      },
      "geometry": {
        "type": "LineString",
        "coordinates": [
          [
            113.24791666647104,
            30.49664347707487
          ],
          [
            113.85041666679581,
            30.650000000000063
          ]
        ]
      }
    },
    {
      "type": "Feature",
      "id": "HR_40661140",
      "properties": {
        "id": "HR_40661140",
        "flowDirection": "topology_ordered_flowthrough",
        "fromSubbasin": "PF_465633",
        "toSubbasin": "PF_465633",
        "downstreamSubbasin": "PF_465631",
        "flowThrough": [
          "PF_465633"
        ],
        "sourceHydroRiverId": 40661140,
        "method": "formal_centroid_line_from_hydrorivers_flowthrough_draft"
      },
      "geometry": {
        "type": "LineString",
        "coordinates": [
          [
            113.24791666647104,
            30.49664347707487
          ],
          [
            113.24891666647105,
            30.49764347707487
          ]
        ]
      }
    },
    {
      "type": "Feature",
      "id": "HR_40661139",
      "properties": {
        "id": "HR_40661139",
        "flowDirection": "topology_ordered_flowthrough",
        "fromSubbasin": "PF_465633",
        "toSubbasin": "PF_465633",
        "downstreamSubbasin": "PF_465631",
        "flowThrough": [
          "PF_465633"
        ],
        "sourceHydroRiverId": 40661139,
        "method": "formal_centroid_line_from_hydrorivers_flowthrough_draft"
      },
      "geometry": {
        "type": "LineString",
        "coordinates": [
          [
            113.24791666647104,
            30.49664347707487
          ],
          [
            113.24891666647105,
            30.49764347707487
          ]
        ]
      }
    },
    {
      "type": "Feature",
      "id": "HR_40660971",
      "properties": {
        "id": "HR_40660971",
        "flowDirection": "topology_ordered_flowthrough",
        "fromSubbasin": "PF_465633",
        "toSubbasin": "PF_465633",
        "downstreamSubbasin": "PF_465631",
        "flowThrough": [
          "PF_465633"
        ],
        "sourceHydroRiverId": 40660971,
        "method": "formal_centroid_line_from_hydrorivers_flowthrough_draft"
      },
      "geometry": {
        "type": "LineString",
        "coordinates": [
          [
            113.24791666647104,
            30.49664347707487
          ],
          [
            113.24891666647105,
            30.49764347707487
          ]
        ]
      }
    },
    {
      "type": "Feature",
      "id": "HR_40660340",
      "properties": {
        "id": "HR_40660340",
        "flowDirection": "topology_ordered_flowthrough",
        "fromSubbasin": "PF_465633",
        "toSubbasin": "PF_465633",
        "downstreamSubbasin": "PF_465631",
        "flowThrough": [
          "PF_465633"
        ],
        "sourceHydroRiverId": 40660340,
        "method": "formal_centroid_line_from_hydrorivers_flowthrough_draft"
      },
      "geometry": {
        "type": "LineString",
        "coordinates": [
          [
            113.24791666647104,
            30.49664347707487
          ],
          [
            113.24891666647105,
            30.49764347707487
          ]
        ]
      }
    },
    {
      "type": "Feature",
      "id": "HR_40659854",
      "properties": {
        "id": "HR_40659854",
        "flowDirection": "topology_ordered_flowthrough",
        "fromSubbasin": "PF_465633",
        "toSubbasin": "PF_465633",
        "downstreamSubbasin": "PF_465631",
        "flowThrough": [
          "PF_465633"
        ],
        "sourceHydroRiverId": 40659854,
        "method": "formal_centroid_line_from_hydrorivers_flowthrough_draft"
      },
      "geometry": {
        "type": "LineString",
        "coordinates": [
          [
            113.24791666647104,
            30.49664347707487
          ],
          [
            113.24891666647105,
            30.49764347707487
          ]
        ]
      }
    },
    {
      "type": "Feature",
      "id": "HR_40660498",
      "properties": {
        "id": "HR_40660498",
        "flowDirection": "topology_ordered_flowthrough",
        "fromSubbasin": "PF_465633",
        "toSubbasin": "PF_465633",
        "downstreamSubbasin": "PF_465631",
        "flowThrough": [
          "PF_465633"
        ],
        "sourceHydroRiverId": 40660498,
        "method": "formal_centroid_line_from_hydrorivers_flowthrough_draft"
      },
      "geometry": {
        "type": "LineString",
        "coordinates": [
          [
            113.24791666647104,
            30.49664347707487
          ],
          [
            113.24891666647105,
            30.49764347707487
          ]
        ]
      }
    },
    {
      "type": "Feature",
      "id": "HR_40661303",
      "properties": {
        "id": "HR_40661303",
        "flowDirection": "topology_ordered_flowthrough",
        "fromSubbasin": "PF_465633",
        "toSubbasin": "PF_465633",
        "downstreamSubbasin": "PF_465631",
        "flowThrough": [
          "PF_465633"
        ],
        "sourceHydroRiverId": 40661303,
        "method": "formal_centroid_line_from_hydrorivers_flowthrough_draft"
      },
      "geometry": {
        "type": "LineString",
        "coordinates": [
          [
            113.24791666647104,
            30.49664347707487
          ],
          [
            113.24891666647105,
            30.49764347707487
          ]
        ]
      }
    },
    {
      "type": "Feature",
      "id": "HR_40661456",
      "properties": {
        "id": "HR_40661456",
        "flowDirection": "topology_ordered_flowthrough",
        "fromSubbasin": "PF_465633",
        "toSubbasin": "PF_465633",
        "downstreamSubbasin": "PF_465631",
        "flowThrough": [
          "PF_465633"
        ],
        "sourceHydroRiverId": 40661456,
        "method": "formal_centroid_line_from_hydrorivers_flowthrough_draft"
      },
      "geometry": {
        "type": "LineString",
        "coordinates": [
          [
            113.24791666647104,
            30.49664347707487
          ],
          [
            113.24891666647105,
            30.49764347707487
          ]
        ]
      }
    },
    {
      "type": "Feature",
      "id": "HR_40663257",
      "properties": {
        "id": "HR_40663257",
        "flowDirection": "topology_ordered_flowthrough",
        "fromSubbasin": "PF_465633",
        "toSubbasin": "PF_465633",
        "downstreamSubbasin": "PF_465631",
        "flowThrough": [
          "PF_465633"
        ],
        "sourceHydroRiverId": 40663257,
        "method": "formal_centroid_line_from_hydrorivers_flowthrough_draft"
      },
      "geometry": {
        "type": "LineString",
        "coordinates": [
          [
            113.24791666647104,
            30.49664347707487
          ],
          [
            113.24891666647105,
            30.49764347707487
          ]
        ]
      }
    },
    {
      "type": "Feature",
      "id": "HR_40663869",
      "properties": {
        "id": "HR_40663869",
        "flowDirection": "topology_ordered_flowthrough",
        "fromSubbasin": "PF_465633",
        "toSubbasin": "PF_465633",
        "downstreamSubbasin": "PF_465631",
        "flowThrough": [
          "PF_465633"
        ],
        "sourceHydroRiverId": 40663869,
        "method": "formal_centroid_line_from_hydrorivers_flowthrough_draft"
      },
      "geometry": {
        "type": "LineString",
        "coordinates": [
          [
            113.24791666647104,
            30.49664347707487
          ],
          [
            113.24891666647105,
            30.49764347707487
          ]
        ]
      }
    },
    {
      "type": "Feature",
      "id": "HR_40664194",
      "properties": {
        "id": "HR_40664194",
        "flowDirection": "topology_ordered_flowthrough",
        "fromSubbasin": "PF_465633",
        "toSubbasin": "PF_465633",
        "downstreamSubbasin": "PF_465631",
        "flowThrough": [
          "PF_465633"
        ],
        "sourceHydroRiverId": 40664194,
        "method": "formal_centroid_line_from_hydrorivers_flowthrough_draft"
      },
      "geometry": {
        "type": "LineString",
        "coordinates": [
          [
            113.24791666647104,
            30.49664347707487
          ],
          [
            113.24891666647105,
            30.49764347707487
          ]
        ]
      }
    },
    {
      "type": "Feature",
      "id": "HR_40664356",
      "properties": {
        "id": "HR_40664356",
        "flowDirection": "topology_ordered_flowthrough",
        "fromSubbasin": "PF_465633",
        "toSubbasin": "PF_465633",
        "downstreamSubbasin": "PF_465631",
        "flowThrough": [
          "PF_465633"
        ],
        "sourceHydroRiverId": 40664356,
        "method": "formal_centroid_line_from_hydrorivers_flowthrough_draft"
      },
      "geometry": {
        "type": "LineString",
        "coordinates": [
          [
            113.24791666647104,
            30.49664347707487
          ],
          [
            113.24891666647105,
            30.49764347707487
          ]
        ]
      }
    },
    {
      "type": "Feature",
      "id": "HR_40664706",
      "properties": {
        "id": "HR_40664706",
        "flowDirection": "topology_ordered_flowthrough",
        "fromSubbasin": "PF_465633",
        "toSubbasin": "PF_465633",
        "downstreamSubbasin": "PF_465631",
        "flowThrough": [
          "PF_465633"
        ],
        "sourceHydroRiverId": 40664706,
        "method": "formal_centroid_line_from_hydrorivers_flowthrough_draft"
      },
      "geometry": {
        "type": "LineString",
        "coordinates": [
          [
            113.24791666647104,
            30.49664347707487
          ],
          [
            113.24891666647105,
            30.49764347707487
          ]
        ]
      }
    },
    {
      "type": "Feature",
      "id": "HR_40665183",
      "properties": {
        "id": "HR_40665183",
        "flowDirection": "topology_ordered_flowthrough",
        "fromSubbasin": "PF_465633",
        "toSubbasin": "PF_465633",
        "downstreamSubbasin": "PF_465631",
        "flowThrough": [
          "PF_465633"
        ],
        "sourceHydroRiverId": 40665183,
        "method": "formal_centroid_line_from_hydrorivers_flowthrough_draft"
      },
      "geometry": {
        "type": "LineString",
        "coordinates": [
          [
            113.24791666647104,
            30.49664347707487
          ],
          [
            113.24891666647105,
            30.49764347707487
          ]
        ]
      }
    },
    {
      "type": "Feature",
      "id": "HR_40667196",
      "properties": {
        "id": "HR_40667196",
        "flowDirection": "topology_ordered_flowthrough",
        "fromSubbasin": "PF_465633",
        "toSubbasin": "PF_465633",
        "downstreamSubbasin": "PF_465631",
        "flowThrough": [
          "PF_465633"
        ],
        "sourceHydroRiverId": 40667196,
        "method": "formal_centroid_line_from_hydrorivers_flowthrough_draft"
      },
      "geometry": {
        "type": "LineString",
        "coordinates": [
          [
            113.24791666647104,
            30.49664347707487
          ],
          [
            113.24891666647105,
            30.49764347707487
          ]
        ]
      }
    }
  ]
}
